{"type": "FeatureCollection", "features": [{"type": "Feature", "properties": {"norad_id": 2807, "name": "OPS 7218 (TRANSIT 16)", "group": "nnss", "lat": -63.017960219005055, "lon": -6.541939884503722, "alt_km": 1093.1141246607112, "timestamp": "2025-12-10T04:57:29.886715+00:00", "meta": {"OBJECT_NAME": "OPS 7218 (TRANSIT 16)", "OBJECT_ID": "1967-048A", "EPOCH": "2025-12-09T19:27:21.539808", "MEAN_MOTION": 13.50721437, "ECCENTRICITY": 0.0021833, "INCLINATION": 89.6732, "RA_OF_ASC_NODE": 354.1134, "ARG_OF_PERICENTER": 121.9159, "MEAN_ANOMALY": 51.0026, "EPHEMERIS_TYPE": 0, "CLASSIFICATION_TYPE": "U", "NORAD_CAT_ID": 2807, "ELEMENT_SET_NO": 999, "REV_AT_EPOCH": 88236, "BSTAR": 0.00021843, "MEAN_MOTION_DOT": 1.51e-06, "MEAN_MOTION_DDOT": 0}, "tle": {"line1": "1 02807U 67048A   25343.81066597  .00000151  00000+0  21843-3 0  9998", "line2": "2 02807  89.6732 354.1134 0021833 121.9159  51.0026 13.50721437882364"}}, "geometry": {"type": "Point", "coordinates": [-6.541939884503722, -63.017960219005055]}}, {"type": "Feature", "properties": {"norad_id": 2965, "name": "OPS 4947 (TRANSIT 17)", "group": "nnss", "lat": -22.950922598576117, "lon": 24.311226110216055, "alt_km": 1067.8246002453798, "timestamp": "2025-12-10T04:57:29.886738+00:00", "meta": {"OBJECT_NAME": "OPS 4947 (TRANSIT 17)", "OBJECT_ID": "1967-092A", "EPOCH": "2025-12-09T09:36:30.324672", "MEAN_MOTION": 13.53452312, "ECCENTRICITY": 0.00459991, "INCLINATION": 89.2499, "RA_OF_ASC_NODE": 24.6904, "ARG_OF_PERICENTER": 244.5157, "MEAN_ANOMALY": 126.0877, "EPHEMERIS_TYPE": 0, "CLASSIFICATION_TYPE": "U", "NORAD_CAT_ID": 2965, "ELEMENT_SET_NO": 999, "REV_AT_EPOCH": 87052, "BSTAR": 0.00025971381, "MEAN_MOTION_DOT": 1.87e-06, "MEAN_MOTION_DDOT": 0}, "tle": {"line1": "1 02965U 67092A   25343.40035098  .00000187  00000+0  25971-3 0  9994", "line2": "2 02965  89.2499  24.6904 0045999 244.5157 126.0877 13.53452312870526"}}, "geometry": {"type": "Point", "coordinates": [24.311226110216055, -22.950922598576117]}}, {"type": "Feature", "properties": {"norad_id": 3133, "name": "OPS 7034 (TRANSIT 18)", "group": "nnss", "lat": 37.36680782601799, "lon": 93.65268869859513, "alt_km": 1018.2618413738664, "timestamp": "2025-12-10T04:57:29.886753+00:00", "meta": {"OBJECT_NAME": "OPS 7034 (TRANSIT 18)", "OBJECT_ID": "1968-012A", "EPOCH": "2025-12-09T19:29:54.021984", "MEAN_MOTION": 13.51564681, "ECCENTRICITY": 0.0073569, "INCLINATION": 90.0276, "RA_OF_ASC_NODE": 273.6305, "ARG_OF_PERICENTER": 177.6268, "MEAN_ANOMALY": 208.6684, "EPHEMERIS_TYPE": 0, "CLASSIFICATION_TYPE": "U", "NORAD_CAT_ID": 3133, "ELEMENT_SET_NO": 999, "REV_AT_EPOCH": 56879, "BSTAR": 0.00027275, "MEAN_MOTION_DOT": 1.9e-06, "MEAN_MOTION_DDOT": 0}, "tle": {"line1": "1 03133U 68012A   25343.81243081  .00000190  00000+0  27275-3 0  9996", "line2": "2 03133  90.0276 273.6305 0073569 177.6268 208.6684 13.51564681568798"}}, "geometry": {"type": "Point", "coordinates": [93.65268869859513, 37.36680782601799]}}, {"type": "Feature", "properties": {"norad_id": 4507, "name": "NNSS 19 (TRANSIT 19)", "group": "nnss", "lat": 63.05148227333377, "lon": 54.54325912411296, "alt_km": 1188.2152015016927, "timestamp": "2025-12-10T04:57:29.886765+00:00", "meta": {"OBJECT_NAME": "NNSS 19 (TRANSIT 19)", "OBJECT_ID": "1970-067A", "EPOCH": "2025-12-09T10:36:12.002112", "MEAN_MOTION": 13.51314006, "ECCENTRICITY": 0.01707452, "INCLINATION": 90.0057, "RA_OF_ASC_NODE": 234.5316, "ARG_OF_PERICENTER": 303.0164, "MEAN_ANOMALY": 55.4679, "EPHEMERIS_TYPE": 0, "CLASSIFICATION_TYPE": "U", "NORAD_CAT_ID": 4507, "ELEMENT_SET_NO": 999, "REV_AT_EPOCH": 72177, "BSTAR": 0.00031890867, "MEAN_MOTION_DOT": 2.34e-06, "MEAN_MOTION_DDOT": 0}, "tle": {"line1": "1 04507U 70067A   25343.44180558  .00000234  00000+0  31891-3 0  9991", "line2": "2 04507  90.0057 234.5316 0170745 303.0164  55.4679 13.51314006721778"}}, "geometry": {"type": "Point", "coordinates": [54.54325912411296, 63.05148227333377]}}, {"type": "Feature", "properties": {"norad_id": 6909, "name": "NNSS 20 (TRANSIT 20)", "group": "nnss", "lat": 4.3253898083746956, "lon": -104.89710638676617, "alt_km": 977.6958827490071, "timestamp": "2025-12-10T04:57:29.886776+00:00", "meta": {"OBJECT_NAME": "NNSS 20 (TRANSIT 20)", "OBJECT_ID": "1973-081A", "EPOCH": "2025-12-09T11:25:36.409440", "MEAN_MOTION": 13.71432035, "ECCENTRICITY": 0.0156617, "INCLINATION": 89.8562, "RA_OF_ASC_NODE": 255.103, "ARG_OF_PERICENTER": 87.977, "MEAN_ANOMALY": 273.932, "EPHEMERIS_TYPE": 0, "CLASSIFICATION_TYPE": "U", "NORAD_CAT_ID": 6909, "ELEMENT_SET_NO": 999, "REV_AT_EPOCH": 80316, "BSTAR": 0.00036387222, "MEAN_MOTION_DOT": 3.69e-06, "MEAN_MOTION_DDOT": 0}, "tle": {"line1": "1 06909U 73081A   25343.47611585  .00000369  00000+0  36387-3 0  9994", "line2": "2 06909  89.8562 255.1030 0156617  87.9770 273.9320 13.71432035803167"}}, "geometry": {"type": "Point", "coordinates": [-104.89710638676617, 4.3253898083746956]}}, {"type": "Feature", "properties": {"norad_id": 10457, "name": "TRANSAT", "group": "nnss", "lat": 36.80278478663046, "lon": -101.57673646196858, "alt_km": 1062.4781528763324, "timestamp": "2025-12-10T04:57:29.886787+00:00", "meta": {"OBJECT_NAME": "TRANSAT", "OBJECT_ID": "1977-106A", "EPOCH": "2025-12-09T18:23:16.357920", "MEAN_MOTION": 13.48943, "ECCENTRICITY": 0.002511, "INCLINATION": 89.6481, "RA_OF_ASC_NODE": 78.7023, "ARG_OF_PERICENTER": 198.1954, "MEAN_ANOMALY": 327.5817, "EPHEMERIS_TYPE": 0, "CLASSIFICATION_TYPE": "U", "NORAD_CAT_ID": 10457, "ELEMENT_SET_NO": 999, "REV_AT_EPOCH": 36703, "BSTAR": 0.00021291, "MEAN_MOTION_DOT": 1.44e-06, "MEAN_MOTION_DDOT": 0}, "tle": {"line1": "1 10457U 77106A   25343.76616155  .00000144  00000+0  21291-3 0  9998", "line2": "2 10457  89.6481  78.7023 0025110 198.1954 327.5817 13.48943000367032"}}, "geometry": {"type": "Point", "coordinates": [-101.57673646196858, 36.80278478663046]}}, {"type": "Feature", "properties": {"norad_id": 12458, "name": "NOVA 1", "group": "nnss", "lat": -81.37918214724536, "lon": 90.44676880017889, "alt_km": 1191.4059433727343, "timestamp": "2025-12-10T04:57:29.886798+00:00", "meta": {"OBJECT_NAME": "NOVA 1", "OBJECT_ID": "1981-044A", "EPOCH": "2025-12-09T17:32:56.257152", "MEAN_MOTION": 13.23278034, "ECCENTRICITY": 0.0015825, "INCLINATION": 89.8524, "RA_OF_ASC_NODE": 91.4277, "ARG_OF_PERICENTER": 111.3717, "MEAN_ANOMALY": 63.8823, "EPHEMERIS_TYPE": 0, "CLASSIFICATION_TYPE": "U", "NORAD_CAT_ID": 12458, "ELEMENT_SET_NO": 999, "REV_AT_EPOCH": 15146, "BSTAR": 0.00021671, "MEAN_MOTION_DOT": 1.01e-06, "MEAN_MOTION_DDOT": 0}, "tle": {"line1": "1 12458U 81044A   25343.73120668  .00000101  00000+0  21671-3 0  9998", "line2": "2 12458  89.8524  91.4277 0015825 111.3717  63.8823 13.23278034151460"}}, "geometry": {"type": "Point", "coordinates": [90.44676880017889, -81.37918214724536]}}, {"type": "Feature", "properties": {"norad_id": 15362, "name": "NOVA 3", "group": "nnss", "lat": 26.451235763811834, "lon": -99.43425122551086, "alt_km": 1195.216160598784, "timestamp": "2025-12-10T04:57:29.886809+00:00", "meta": {"OBJECT_NAME": "NOVA 3", "OBJECT_ID": "1984-110A", "EPOCH": "2025-12-09T13:43:18.996096", "MEAN_MOTION": 13.23044071, "ECCENTRICITY": 0.0030735, "INCLINATION": 90.1223, "RA_OF_ASC_NODE": 80.4974, "ARG_OF_PERICENTER": 340.9141, "MEAN_ANOMALY": 30.4969, "EPHEMERIS_TYPE": 0, "CLASSIFICATION_TYPE": "U", "NORAD_CAT_ID": 15362, "ELEMENT_SET_NO": 999, "REV_AT_EPOCH": 98657, "BSTAR": 0.00021782, "MEAN_MOTION_DOT": 1e-06, "MEAN_MOTION_DDOT": 0}, "tle": {"line1": "1 15362U 84110A   25343.57174764  .00000100  00000+0  21782-3 0  9992", "line2": "2 15362  90.1223  80.4974 0030735 340.9141  30.4969 13.23044071986579"}}, "geometry": {"type": "Point", "coordinates": [-99.43425122551086, 26.451235763811834]}}, {"type": "Feature", "properties": {"norad_id": 15935, "name": "OSCAR 30", "group": "nnss", "lat": 63.634413873887915, "lon": -79.86127624179198, "alt_km": 1002.5341748177207, "timestamp": "2025-12-10T04:57:29.886820+00:00", "meta": {"OBJECT_NAME": "OSCAR 30", "OBJECT_ID": "1985-066A", "EPOCH": "2025-12-09T18:25:09.306048", "MEAN_MOTION": 13.3607769, "ECCENTRICITY": 0.0169422, "INCLINATION": 90.165, "RA_OF_ASC_NODE": 99.7985, "ARG_OF_PERICENTER": 92.2003, "MEAN_ANOMALY": 72.3872, "EPHEMERIS_TYPE": 0, "CLASSIFICATION_TYPE": "U", "NORAD_CAT_ID": 15935, "ELEMENT_SET_NO": 999, "REV_AT_EPOCH": 96413, "BSTAR": 0.00028719, "MEAN_MOTION_DOT": 1.7e-06, "MEAN_MOTION_DDOT": 0}, "tle": {"line1": "1 15935U 85066A   25343.76746882  .00000170  00000+0  28719-3 0  9990", "line2": "2 15935  90.1650  99.7985 0169422  92.2003  72.3872 13.36077690964137"}}, "geometry": {"type": "Point", "coordinates": [-79.86127624179198, 63.634413873887915]}}, {"type": "Feature", "properties": {"norad_id": 15936, "name": "OSCAR 24", "group": "nnss", "lat": -14.191148567237, "lon": -87.78474046827057, "alt_km": 1141.7963943508412, "timestamp": "2025-12-10T04:57:29.886831+00:00", "meta": {"OBJECT_NAME": "OSCAR 24", "OBJECT_ID": "1985-066B", "EPOCH": "2025-12-09T13:41:01.087008", "MEAN_MOTION": 13.35935118, "ECCENTRICITY": 0.0170472, "INCLINATION": 90.1788, "RA_OF_ASC_NODE": 92.2493, "ARG_OF_PERICENTER": 99.1842, "MEAN_ANOMALY": 273.8521, "EPHEMERIS_TYPE": 0, "CLASSIFICATION_TYPE": "U", "NORAD_CAT_ID": 15936, "ELEMENT_SET_NO": 999, "REV_AT_EPOCH": 96601, "BSTAR": 0.00024605, "MEAN_MOTION_DOT": 1.47e-06, "MEAN_MOTION_DDOT": 0}, "tle": {"line1": "1 15936U 85066B   25343.57015147  .00000147  00000+0  24605-3 0  9997", "line2": "2 15936  90.1788  92.2493 0170472  99.1842 273.8521 13.35935118966011"}}, "geometry": {"type": "Point", "coordinates": [-87.78474046827057, -14.191148567237]}}]}